[{"OBJECT_NAME":"ONEWEB-0680","OBJECT_ID":"2023-068G","EPOCH":"2026-05-23T08:14:10.116096","MEAN_MOTION":13.21823556,"ECCENTRICITY":0.0002365,"INCLINATION":87.926,"RA_OF_ASC_NODE":248.9123,"ARG_OF_PERICENTER":112.8981,"MEAN_ANOMALY":247.2403,"EPHEMERIS_TYPE":0,"CLASSIFICATION_TYPE":"U","NORAD_CAT_ID":56716,"ELEMENT_SET_NO":999,"REV_AT_EPOCH":14781,"BSTAR":0.00022318,"MEAN_MOTION_DOT":1.05e-06,"MEAN_MOTION_DDOT":0.0},{"OBJECT_NAME":"ONEWEB-0681","OBJECT_ID":"2023-068H","EPOCH":"2026-05-23T13:13:18.761376","MEAN_MOTION":13.2182535,"ECCENTRICITY":0.000279,"INCLINATION":87.9256,"RA_OF_ASC_NODE":248.8735,"ARG_OF_PERICENTER":86.9031,"MEAN_ANOMALY":273.2422,"EPHEMERIS_TYPE":0,"CLASSIFICATION_TYPE":"U","NORAD_CAT_ID":56717,"ELEMENT_SET_NO":999,"REV_AT_EPOCH":14783,"BSTAR":0.00025936,"MEAN_MOTION_DOT":1.2e-06,"MEAN_MOTION_DDOT":0.0},{"OBJECT_NAME":"ONEWEB-0682","OBJECT_ID":"2023-068J","EPOCH":"2026-05-23T07:30:44.092512","MEAN_MOTION":13.15547055,"ECCENTRICITY":0.0002244,"INCLINATION":87.8995,"RA_OF_ASC_NODE":264.1494,"ARG_OF_PERICENTER":112.175,"MEAN_ANOMALY":247.9619,"EPHEMERIS_TYPE":0,"CLASSIFICATION_TYPE":"U","NORAD_CAT_ID":56718,"ELEMENT_SET_NO":999,"REV_AT_EPOCH":14618,"BSTAR":0.0004247,"MEAN_MOTION_DOT":1.73e-06,"MEAN_MOTION_DDOT":0.0},{"OBJECT_NAME":"ONEWEB-0683","OBJECT_ID":"2023-068K","EPOCH":"2026-05-23T13:33:32.022144","MEAN_MOTION":13.15547725,"ECCENTRICITY":0.0001968,"INCLINATION":87.9,"RA_OF_ASC_NODE":264.0981,"ARG_OF_PERICENTER":108.5752,"MEAN_ANOMALY":251.5592,"EPHEMERIS_TYPE":0,"CLASSIFICATION_TYPE":"U","NORAD_CAT_ID":56719,"ELEMENT_SET_NO":999,"REV_AT_EPOCH":14618,"BSTAR":0.00041784,"MEAN_MOTION_DOT":1.7e-06,"MEAN_MOTION_DDOT":0.0},{"OBJECT_NAME":"ONEWEB-0684","OBJECT_ID":"2023-068L","EPOCH":"2026-05-23T08:16:21.184032","MEAN_MOTION":13.15546925,"ECCENTRICITY":7.08e-05,"INCLINATION":87.8998,"RA_OF_ASC_NODE":264.1326,"ARG_OF_PERICENTER":65.199,"MEAN_ANOMALY":294.9214,"EPHEMERIS_TYPE":0,"CLASSIFICATION_TYPE":"U","NORAD_CAT_ID":56720,"ELEMENT_SET_NO":999,"REV_AT_EPOCH":14598,"BSTAR":-0.00011332,"MEAN_MOTION_DOT":-3e-07,"MEAN_MOTION_DDOT":0.0},{"OBJECT_NAME":"ONEWEB-0686","OBJECT_ID":"2023-068M","EPOCH":"2026-05-23T12:07:18.790176","MEAN_MOTION":13.16595197,"ECCENTRICITY":0.0001792,"INCLINATION":87.9096,"RA_OF_ASC_NODE":233.6954,"ARG_OF_PERICENTER":109.701,"MEAN_ANOMALY":250.4314,"EPHEMERIS_TYPE":0,"CLASSIFICATION_TYPE":"U","NORAD_CAT_ID":56721,"ELEMENT_SET_NO":999,"REV_AT_EPOCH":14846,"BSTAR":-0.00055096,"MEAN_MOTION_DOT":-1.98e-06,"MEAN_MOTION_DDOT":0.0},{"OBJECT_NAME":"ONEWEB-0694","OBJECT_ID":"2023-068N","EPOCH":"2026-05-23T12:16:26.053824","MEAN_MOTION":13.16593495,"ECCENTRICITY":0.0002273,"INCLINATION":87.9118,"RA_OF_ASC_NODE":233.6539,"ARG_OF_PERICENTER":111.8385,"MEAN_ANOMALY":248.2988,"EPHEMERIS_TYPE":0,"CLASSIFICATION_TYPE":"U","NORAD_CAT_ID":56722,"ELEMENT_SET_NO":999,"REV_AT_EPOCH":14852,"BSTAR":0.00016346,"MEAN_MOTION_DOT":7.5e-07,"MEAN_MOTION_DDOT":0.0},{"OBJECT_NAME":"ONEWEB-0696","OBJECT_ID":"2023-068P","EPOCH":"2026-05-23T09:04:15.835584","MEAN_MOTION":13.15547805,"ECCENTRICITY":0.0001596,"INCLINATION":87.8986,"RA_OF_ASC_NODE":264.166,"ARG_OF_PERICENTER":88.7399,"MEAN_ANOMALY":271.3914,"EPHEMERIS_TYPE":0,"CLASSIFICATION_TYPE":"U","NORAD_CAT_ID":56723,"ELEMENT_SET_NO":999,"REV_AT_EPOCH":14610,"BSTAR":-0.00063124,"MEAN_MOTION_DOT":-2.25e-06,"MEAN_MOTION_DDOT":0.0},{"OBJECT_NAME":"ONEWEB-0703","OBJECT_ID":"2023-068Q","EPOCH":"2026-05-23T09:17:58.233120","MEAN_MOTION":13.15547214,"ECCENTRICITY":0.0001977,"INCLINATION":87.8984,"RA_OF_ASC_NODE":264.1452,"ARG_OF_PERICENTER":74.3704,"MEAN_ANOMALY":285.7644,"EPHEMERIS_TYPE":0,"CLASSIFICATION_TYPE":"U","NORAD_CAT_ID":56724,"ELEMENT_SET_NO":999,"REV_AT_EPOCH":14599,"BSTAR":0.00012588,"MEAN_MOTION_DOT":6e-07,"MEAN_MOTION_DDOT":0.0},{"OBJECT_NAME":"ONEWEB-0721","OBJECT_ID":"2023-068R","EPOCH":"2026-05-23T09:35:02.167296","MEAN_MOTION":13.22467984,"ECCENTRICITY":0.0001974,"INCLINATION":86.6755,"RA_OF_ASC_NODE":93.427,"ARG_OF_PERICENTER":80.8331,"MEAN_ANOMALY":279.3026,"EPHEMERIS_TYPE":0,"CLASSIFICATION_TYPE":"U","NORAD_CAT_ID":56725,"ELEMENT_SET_NO":999,"REV_AT_EPOCH":15466,"BSTAR":6.2686e-05,"MEAN_MOTION_DOT":4.1e-07,"MEAN_MOTION_DDOT":0.0},{"OBJECT_NAME":"ONEWEB-0015","OBJECT_ID":"2024-188A","EPOCH":"2026-05-23T10:28:52.735008","MEAN_MOTION":13.11414685,"ECCENTRICITY":0.0002354,"INCLINATION":87.8909,"RA_OF_ASC_NODE":26.0174,"ARG_OF_PERICENTER":86.0073,"MEAN_ANOMALY":274.1324,"EPHEMERIS_TYPE":0,"CLASSIFICATION_TYPE":"U","NORAD_CAT_ID":61594,"ELEMENT_SET_NO":999,"REV_AT_EPOCH":8121,"BSTAR":0.0012445000000000002,"MEAN_MOTION_DOT":4.54e-06,"MEAN_MOTION_DDOT":0.0},{"OBJECT_NAME":"ONEWEB-0687","OBJECT_ID":"2024-188B","EPOCH":"2026-05-23T07:46:09.695712","MEAN_MOTION":13.17650477,"ECCENTRICITY":0.0002089,"INCLINATION":87.9149,"RA_OF_ASC_NODE":10.8224,"ARG_OF_PERICENTER":97.2821,"MEAN_ANOMALY":262.8548,"EPHEMERIS_TYPE":0,"CLASSIFICATION_TYPE":"U","NORAD_CAT_ID":61595,"ELEMENT_SET_NO":999,"REV_AT_EPOCH":8262,"BSTAR":0.00012105,"MEAN_MOTION_DOT":6e-07,"MEAN_MOTION_DDOT":0.0},{"OBJECT_NAME":"ONEWEB-0688","OBJECT_ID":"2024-188C","EPOCH":"2026-05-23T08:27:27.804096","MEAN_MOTION":13.17650548,"ECCENTRICITY":0.0003079,"INCLINATION":87.9148,"RA_OF_ASC_NODE":10.8162,"ARG_OF_PERICENTER":88.6309,"MEAN_ANOMALY":271.5175,"EPHEMERIS_TYPE":0,"CLASSIFICATION_TYPE":"U","NORAD_CAT_ID":61596,"ELEMENT_SET_NO":999,"REV_AT_EPOCH":8262,"BSTAR":-2.5695000000000004e-05,"MEAN_MOTION_DOT":3e-08,"MEAN_MOTION_DDOT":0.0},{"OBJECT_NAME":"ONEWEB-0689","OBJECT_ID":"2024-188D","EPOCH":"2026-05-23T09:27:49.648032","MEAN_MOTION":13.11416672,"ECCENTRICITY":0.0001725,"INCLINATION":87.8929,"RA_OF_ASC_NODE":25.9797,"ARG_OF_PERICENTER":91.8127,"MEAN_ANOMALY":268.3198,"EPHEMERIS_TYPE":0,"CLASSIFICATION_TYPE":"U","NORAD_CAT_ID":61597,"ELEMENT_SET_NO":999,"REV_AT_EPOCH":8120,"BSTAR":-0.001671,"MEAN_MOTION_DOT":-5.8e-06,"MEAN_MOTION_DDOT":0.0},{"OBJECT_NAME":"ONEWEB-0690","OBJECT_ID":"2024-188E","EPOCH":"2026-05-23T04:12:53.468640","MEAN_MOTION":13.1141981,"ECCENTRICITY":0.0001944,"INCLINATION":87.8921,"RA_OF_ASC_NODE":26.0371,"ARG_OF_PERICENTER":61.9574,"MEAN_ANOMALY":298.175,"EPHEMERIS_TYPE":0,"CLASSIFICATION_TYPE":"U","NORAD_CAT_ID":61598,"ELEMENT_SET_NO":999,"REV_AT_EPOCH":8135,"BSTAR":-0.0007712,"MEAN_MOTION_DOT":-2.61e-06,"MEAN_MOTION_DDOT":0.0},{"OBJECT_NAME":"ONEWEB-0691","OBJECT_ID":"2024-188F","EPOCH":"2026-05-23T09:35:08.369088","MEAN_MOTION":13.11417437,"ECCENTRICITY":0.0002137,"INCLINATION":87.8927,"RA_OF_ASC_NODE":25.8989,"ARG_OF_PERICENTER":87.12,"MEAN_ANOMALY":273.0172,"EPHEMERIS_TYPE":0,"CLASSIFICATION_TYPE":"U","NORAD_CAT_ID":61599,"ELEMENT_SET_NO":999,"REV_AT_EPOCH":8123,"BSTAR":-0.0020694000000000003,"MEAN_MOTION_DOT":-7.21e-06,"MEAN_MOTION_DDOT":0.0},{"OBJECT_NAME":"ONEWEB-0692","OBJECT_ID":"2024-188G","EPOCH":"2026-05-23T10:04:27.843744","MEAN_MOTION":13.11418002,"ECCENTRICITY":0.0001045,"INCLINATION":87.8908,"RA_OF_ASC_NODE":26.0127,"ARG_OF_PERICENTER":91.1945,"MEAN_ANOMALY":268.9303,"EPHEMERIS_TYPE":0,"CLASSIFICATION_TYPE":"U","NORAD_CAT_ID":61600,"ELEMENT_SET_NO":999,"REV_AT_EPOCH":8122,"BSTAR":0.0009662300000000001,"MEAN_MOTION_DOT":3.55e-06,"MEAN_MOTION_DDOT":0.0},{"OBJECT_NAME":"ONEWEB-0693","OBJECT_ID":"2024-188H","EPOCH":"2026-05-23T08:44:28.722048","MEAN_MOTION":13.17650051,"ECCENTRICITY":0.0002198,"INCLINATION":87.9143,"RA_OF_ASC_NODE":10.8349,"ARG_OF_PERICENTER":63.5353,"MEAN_ANOMALY":296.6004,"EPHEMERIS_TYPE":0,"CLASSIFICATION_TYPE":"U","NORAD_CAT_ID":61601,"ELEMENT_SET_NO":999,"REV_AT_EPOCH":8261,"BSTAR":-1.1160000000000002e-05,"MEAN_MOTION_DOT":9e-08,"MEAN_MOTION_DDOT":0.0},{"OBJECT_NAME":"ONEWEB-0695","OBJECT_ID":"2024-188J","EPOCH":"2026-05-23T09:30:14.863104","MEAN_MOTION":13.11416329,"ECCENTRICITY":0.0001432,"INCLINATION":87.8906,"RA_OF_ASC_NODE":26.0092,"ARG_OF_PERICENTER":95.8645,"MEAN_ANOMALY":264.2646,"EPHEMERIS_TYPE":0,"CLASSIFICATION_TYPE":"U","NORAD_CAT_ID":61602,"ELEMENT_SET_NO":999,"REV_AT_EPOCH":8121,"BSTAR":-0.0015093,"MEAN_MOTION_DOT":-5.22e-06,"MEAN_MOTION_DDOT":0.0},{"OBJECT_NAME":"ONEWEB-0697","OBJECT_ID":"2024-188K","EPOCH":"2026-05-23T10:16:40.481184","MEAN_MOTION":13.11416629,"ECCENTRICITY":0.0001031,"INCLINATION":87.8911,"RA_OF_ASC_NODE":25.993,"ARG_OF_PERICENTER":84.7489,"MEAN_ANOMALY":275.3757,"EPHEMERIS_TYPE":0,"CLASSIFICATION_TYPE":"U","NORAD_CAT_ID":61603,"ELEMENT_SET_NO":999,"REV_AT_EPOCH":8120,"BSTAR":0.001601,"MEAN_MOTION_DOT":5.8e-06,"MEAN_MOTION_DDOT":0.0},{"OBJECT_NAME":"ONEWEB-0698","OBJECT_ID":"2024-188L","EPOCH":"2026-05-23T09:44:55.023360","MEAN_MOTION":13.11418146,"ECCENTRICITY":0.0001246,"INCLINATION":87.8911,"RA_OF_ASC_NODE":26.012,"ARG_OF_PERICENTER":40.8112,"MEAN_ANOMALY":319.3109,"EPHEMERIS_TYPE":0,"CLASSIFICATION_TYPE":"U","NORAD_CAT_ID":61604,"ELEMENT_SET_NO":999,"REV_AT_EPOCH":8122,"BSTAR":-0.00065869,"MEAN_MOTION_DOT":-2.21e-06,"MEAN_MOTION_DDOT":0.0},{"OBJECT_NAME":"ONEWEB-0699","OBJECT_ID":"2024-188M","EPOCH":"2026-05-23T11:25:00.086016","MEAN_MOTION":13.10372795,"ECCENTRICITY":0.0001154,"INCLINATION":87.8854,"RA_OF_ASC_NODE":41.1853,"ARG_OF_PERICENTER":75.8608,"MEAN_ANOMALY":284.2647,"EPHEMERIS_TYPE":0,"CLASSIFICATION_TYPE":"U","NORAD_CAT_ID":61605,"ELEMENT_SET_NO":999,"REV_AT_EPOCH":8007,"BSTAR":0.0018392,"MEAN_MOTION_DOT":6.55e-06,"MEAN_MOTION_DDOT":0.0},{"OBJECT_NAME":"ONEWEB-0700","OBJECT_ID":"2024-188N","EPOCH":"2026-05-23T11:27:23.381280","MEAN_MOTION":13.10372264,"ECCENTRICITY":0.0001241,"INCLINATION":87.8871,"RA_OF_ASC_NODE":41.0896,"ARG_OF_PERICENTER":94.0063,"MEAN_ANOMALY":266.1207,"EPHEMERIS_TYPE":0,"CLASSIFICATION_TYPE":"U","NORAD_CAT_ID":61606,"ELEMENT_SET_NO":999,"REV_AT_EPOCH":8006,"BSTAR":0.0017586,"MEAN_MOTION_DOT":6.27e-06,"MEAN_MOTION_DDOT":0.0}]